HAWK-11C                
1 62381U 24247E   26068.51221537  .00009223  00000+0  33290-3 0  9992
2 62381  45.0045 114.8762 0005900 329.7040  30.3502 15.28848020 67743
STARLINK-35666          
1 66222U 25244S   26068.72595508  .00020100  00000+0  68969-3 0  9991
2 66222  53.1576 229.8410 0001039  42.1864 317.9216 15.30163345 21666
